sat03810
1 03810U 65065P   20046.78487361  .00000191  00000-0  28185-3 0  9998
2 03810  89.8625 232.0706 0063819 132.6549 288.1913 13.49706763946613
